NORAD_CAT_ID,OBJECT_NAME,OBJECT_TYPE,EPOCH,MEAN_MOTION,ECCENTRICITY,INCLINATION,RA_OF_ASC_NODE,ARG_OF_PERICENTER,MEAN_ANOMALY,BSTAR,MEAN_MOTION_DOT,MEAN_MOTION_DDOT,TLE_LINE0,TLE_LINE1,TLE_LINE2,SEMIMAJOR_AXIS,PERIOD,APOGEE,PERIGEE,DECAYED
54764.0,STARLINK-5458,PAYLOAD,2023-06-16 09:59:53,15.08845584,9.42e-05,53.2161,201.1272,82.694,277.4159,0.00011719,1.578e-05,0.0,0 STARLINK-5458,1 54764U 22175G   23167.41659031  .00001578  00000-0  11719-3 0  9994,2 54764  53.2161 201.1272 0000942  82.6940 277.4159 15.08845584 27209,6917.863,95.437,540.38,539.077,0.0
54764.0,STARLINK-5458,PAYLOAD,2023-06-16 19:32:12,15.08842047,9.15e-05,53.2161,199.3429,81.611,278.4986,8.5837e-05,1.079e-05,0.0,0 STARLINK-5458,1 54764U 22175G   23167.81403208  .00001079  00000-0  85837-4 0  9990,2 54764  53.2161 199.3429 0000915  81.6110 278.4986 15.08842047 29425,6917.874,95.437,540.372,539.106,0.0
54764.0,STARLINK-5458,PAYLOAD,2023-06-17 01:53:45,15.08840206,9.99e-05,53.2159,198.1533,85.4326,274.678,4.3411e-05,4.03e-06,0.0,0 STARLINK-5458,1 54764U 22175G   23168.07899453  .00000403  00000-0  43411-4 0  9992,2 54764  53.2159 198.1533 0000999  85.4326 274.6780 15.08840206 27308,6917.88,95.438,540.436,539.054,0.0
54764.0,STARLINK-5458,PAYLOAD,2023-06-17 08:15:17,15.08839109,0.0001002,53.2159,196.9639,85.1202,274.9905,3.0687e-05,2.01e-06,0.0,0 STARLINK-5458,1 54764U 22175G   23168.34395555  .00000201  00000-0  30687-4 0  9993,2 54764  53.2159 196.9639 0001002  85.1202 274.9905 15.08839109 29503,6917.883,95.438,540.441,539.055,0.0
54764.0,STARLINK-5458,PAYLOAD,2023-06-17 19:22:59,15.08839014,9.66e-05,53.2157,194.8819,87.2677,272.8426,4.0744e-06,-2.23e-06,0.0,0 STARLINK-5458,1 54764U 22175G   23168.80763597 -.00000223  00000-0  40744-5 0  9990,2 54764  53.2157 194.8819 0000966  87.2677 272.8426 15.08839014 29572,6917.883,95.438,540.417,539.08,0.0
54764.0,STARLINK-5458,PAYLOAD,2023-06-18 08:06:04,15.08839085,9.09e-05,53.2161,192.5032,87.0745,273.0351,1.3007e-06,-2.67e-06,0.0,0 STARLINK-5458,1 54764U 22175G   23169.33755612 -.00000267  00000-0  13007-5 0  9998,2 54764  53.2161 192.5032 0000909  87.0745 273.0351 15.08839085 27497,6917.883,95.438,540.377,539.119,0.0
54764.0,STARLINK-5458,PAYLOAD,2023-06-19 01:35:19,15.08837393,9.2e-05,53.216,189.2321,89.95,270.1597,4.4302e-05,4.17e-06,0.0,0 STARLINK-5458,1 54764U 22175G   23170.06619541  .00000417  00000-0  44302-4 0  9997,2 54764  53.2160 189.2321 0000920  89.9500 270.1597 15.08837393 29765,6917.888,95.438,540.39,539.117,0.0
54764.0,STARLINK-5458,PAYLOAD,2023-06-20 01:26:06,15.08835111,9.7e-05,53.2162,184.7722,86.7666,273.3437,2.59e-05,1.24e-06,0.0,0 STARLINK-5458,1 54764U 22175G   23171.05979936  .00000124  00000-0  25900-4 0  9992,2 54764  53.2162 184.7722 0000970  86.7666 273.3437 15.08835111 27756,6917.895,95.438,540.431,539.089,0.0
54764.0,STARLINK-5458,PAYLOAD,2023-06-20 07:47:39,15.08836165,9.72e-05,53.2161,183.5825,87.1701,272.9402,3.3063e-05,2.38e-06,0.0,0 STARLINK-5458,1 54764U 22175G   23171.32475899  .00000238  00000-0  33063-4 0  9996,2 54764  53.2161 183.5825 0000972  87.1701 272.9402 15.08836165 29954,6917.892,95.438,540.43,539.085,0.0
54764.0,STARLINK-5458,PAYLOAD,2023-06-21 07:38:26,15.08837229,9.88e-05,53.2162,179.1223,85.619,274.4915,2.5533e-05,1.19e-06,0.0,0 STARLINK-5458,1 54764U 22175G   23172.31836093  .00000119  00000-0  25533-4 0  9994,2 54764  53.2162 179.1223 0000988  85.6190 274.4915 15.08837229 27945,6917.889,95.438,540.437,539.07,0.0
54764.0,STARLINK-5458,PAYLOAD,2023-06-21 17:10:45,15.08836055,9.77e-05,53.2161,177.3377,82.5065,277.6038,3.3369e-05,2.43e-06,0.0,0 STARLINK-5458,1 54764U 22175G   23172.71580219  .00000243  00000-0  33369-4 0  9998,2 54764  53.2161 177.3377 0000977  82.5065 277.6038 15.08836055 30164,6917.892,95.438,540.433,539.082,0.0
54764.0,STARLINK-5458,PAYLOAD,2023-06-22 17:01:32,15.08836443,9.86e-05,53.2161,172.8781,88.4108,271.6997,4.8352e-05,4.82e-06,0.0,0 STARLINK-5458,1 54764U 22175G   23173.70940382  .00000482  00000-0  48352-4 0  9992,2 54764  53.2161 172.8781 0000986  88.4108 271.6997 15.08836443 28151,6917.891,95.438,540.438,539.074,0.0
54764.0,STARLINK-5458,PAYLOAD,2023-06-23 23:13:52,15.0883816,0.0001015,53.2162,167.2274,87.6794,272.4315,3.7839e-05,3.14e-06,0.0,0 STARLINK-5458,1 54764U 22175G   23174.96796508  .00000314  00000-0  37839-4 0  9992,2 54764  53.2162 167.2274 0001015  87.6794 272.4315 15.08838160 28345,6917.886,95.438,540.453,539.049,0.0
54764.0,STARLINK-5458,PAYLOAD,2023-06-25 08:36:57,15.08844753,0.0001045,53.2159,160.9824,88.5788,271.5324,7.8771e-05,9.66e-06,0.0,0 STARLINK-5458,1 54764U 22175G   23176.35899959  .00000966  00000-0  78771-4 0  9994,2 54764  53.2159 160.9824 0001045  88.5788 271.5324 15.08844753 28556,6917.866,95.437,540.454,539.008,0.0
54764.0,STARLINK-5458,PAYLOAD,2023-06-26 02:06:12,15.0883502,0.0001073,53.2156,157.7119,87.6703,272.4411,7.2848e-06,-1.72e-06,0.0,0 STARLINK-5458,1 54764U 22175G   23177.08764822 -.00000172  00000-0  72848-5 0  9995,2 54764  53.2156 157.7119 0001073  87.6703 272.4411 15.08835020 28668,6917.896,95.438,540.503,539.018,0.0
54764.0,STARLINK-5458,PAYLOAD,2023-06-27 05:07:45,15.08840777,0.000112,53.2152,152.656,93.791,266.3211,-6.9204e-06,-3.98e-06,0.0,0 STARLINK-5458,1 54764U 22175G   23178.21372557 -.00000398  00000-0 -69204-5 0  9994,2 54764  53.2152 152.6560 0001120  93.7910 266.3211 15.08840777 28833,6917.878,95.438,540.518,538.968,0.0
54764.0,STARLINK-5458,PAYLOAD,2023-06-28 08:09:19,15.08836423,0.0001092,53.2167,147.6023,94.8086,265.3031,4.6452e-05,4.52e-06,0.0,0 STARLINK-5458,1 54764U 22175G   23179.33980930  .00000452  00000-0  46452-4 0  9996,2 54764  53.2167 147.6023 0001092  94.8086 265.3031 15.08836423 29003,6917.891,95.438,540.512,539.001,0.0
54764.0,STARLINK-5458,PAYLOAD,2023-06-30 14:12:26,15.08836429,0.000115,53.2171,137.4921,85.8291,274.2833,1.2466e-05,-8.9e-07,0.0,0 STARLINK-5458,1 54764U 22175G   23181.59197459 -.00000089  00000-0  12466-4 0  9998,2 54764  53.2171 137.4921 0001150  85.8291 274.2833 15.08836429 29347,6917.891,95.438,540.552,538.961,0.0
54764.0,STARLINK-5458,PAYLOAD,2023-07-01 01:20:09,15.08832135,0.0001133,53.2171,135.411,87.3197,272.7925,-6.0315e-05,-1.247e-05,0.0,0 STARLINK-5458,1 54764U 22175G   23182.05566139 -.00001247  00000-0 -60315-4 0  9999,2 54764  53.2171 135.4110 0001133  87.3197 272.7925 15.08832135 29411,6917.904,95.438,540.553,538.986,0.0
54764.0,STARLINK-5458,PAYLOAD,2023-07-01 14:03:13,15.08839313,0.0001169,53.2173,133.0317,83.2195,276.893,-4.3044e-06,-3.56e-06,0.0,0 STARLINK-5458,1 54764U 22175G   23182.58557644 -.00000356  00000-0 -43044-5 0  9999,2 54764  53.2173 133.0317 0001169  83.2195 276.8930 15.08839313 29492,6917.882,95.438,540.556,538.939,0.0
54764.0,STARLINK-5458,PAYLOAD,2023-07-02 02:46:18,15.08844317,0.0001212,53.217,130.6526,82.9557,277.1573,9.3229e-05,1.196e-05,0.0,0 STARLINK-5458,1 54764U 22175G   23183.11549019  .00001196  00000-0  93229-4 0  9996,2 54764  53.2170 130.6526 0001212  82.9557 277.1573 15.08844317 29577,6917.867,95.437,540.571,538.894,0.0
54764.0,STARLINK-5458,PAYLOAD,2023-07-03 02:37:05,15.08836617,0.0001198,53.2169,126.193,81.9393,278.1735,9.0091e-05,1.146e-05,0.0,0 STARLINK-5458,1 54764U 22175G   23184.10909544  .00001146  00000-0  90091-4 0  9998,2 54764  53.2169 126.1930 0001198  81.9393 278.1735 15.08836617 29726,6917.891,95.438,540.584,538.927,0.0
54764.0,STARLINK-5458,PAYLOAD,2023-07-04 05:38:39,15.08843666,0.0001284,53.2172,121.1373,86.1718,273.9421,-2.2798e-05,-6.51e-06,0.0,0 STARLINK-5458,1 54764U 22175G   23185.23517544 -.00000651  00000-0 -22798-4 0  9999,2 54764  53.2172 121.1373 0001284  86.1718 273.9421 15.08843666 29895,6917.869,95.437,540.622,538.846,0.0
54764.0,STARLINK-5458,PAYLOAD,2023-07-05 11:50:58,15.08840124,0.0001334,53.2177,115.4872,86.0756,274.0388,-4.192e-06,-3.55e-06,0.0,0 STARLINK-5458,1 54764U 22175G   23186.49373676 -.00000355  00000-0 -41920-5 0  9994,2 54764  53.2177 115.4872 0001334  86.0756 274.0388 15.08840124 30080,6917.88,95.438,540.668,538.822,0.0
54764.0,STARLINK-5458,PAYLOAD,2023-07-06 02:09:27,15.08830256,0.0001331,53.2181,112.8134,82.1651,277.9492,3.7007e-05,3.01e-06,0.0,0 STARLINK-5458,1 54764U 22175G   23187.08990443  .00000301  00000-0  37007-4 0  9996,2 54764  53.2181 112.8134 0001331  82.1651 277.9492 15.08830256 30178,6917.91,95.438,540.696,538.854,0.0
54764.0,STARLINK-5458,PAYLOAD,2023-07-06 05:20:13,15.08837748,0.000139,53.2184,112.2179,97.7611,262.3539,1.5837e-05,-3.6e-07,0.0,0 STARLINK-5458,1 54764U 22175G   23187.22238047 -.00000036  00000-0  15837-4 0  9990,2 54764  53.2184 112.2179 0001390  97.7611 262.3539 15.08837748 30192,6917.887,95.438,540.714,538.791,0.0
54764.0,STARLINK-5458,PAYLOAD,2023-07-07 03:35:38,15.08828316,0.0001544,53.2186,108.0561,104.9033,255.213,-9.5201e-05,-1.802e-05,0.0,0 STARLINK-5458,1 54764U 22175G   23188.14974898 -.00001802  00000-0 -95201-4 0  9999,2 54764  53.2186 108.0561 0001544 104.9033 255.2130 15.08828316 30337,6917.916,95.438,540.849,538.713,0.0
54764.0,STARLINK-5458,PAYLOAD,2023-07-07 22:40:15,15.088305,9.45e-05,53.2153,104.4795,65.6104,294.4986,4.9929e-05,5.07e-06,0.0,0 STARLINK-5458,1 54764U 22175G   23188.94462540  .00000507  00000-0  49929-4 0  9998,2 54764  53.2153 104.4795 0000945  65.6104 294.4986 15.08830500 30451,6917.909,95.438,540.428,539.121,0.0
54764.0,STARLINK-5458,PAYLOAD,2023-07-08 03:26:24,15.0884325,0.0001272,53.2178,103.5931,96.3601,263.7536,0.00011283,1.508e-05,0.0,0 STARLINK-5458,1 54764U 22175G   23189.14333639  .00001508  00000-0  11283-3 0  9990,2 54764  53.2178 103.5931 0001272  96.3601 263.7536 15.08843250 30486,6917.87,95.437,540.615,538.856,0.0
54764.0,STARLINK-5458,PAYLOAD,2023-07-08 11:23:20,15.08838352,0.0001298,53.2181,102.1056,86.6632,273.4509,4.6365e-05,4.5e-06,0.0,0 STARLINK-5458,1 54764U 22175G   23189.47454293  .00000450  00000-0  46365-4 0  9991,2 54764  53.2181 102.1056 0001298  86.6632 273.4509 15.08838352 30538,6917.885,95.438,540.648,538.852,0.0
